{"type": "FeatureCollection", "features": [ {"type": "Feature", "properties": {"norad_id": 66535, "name": "STARLINK-35514", "group": "last-30-days", "lat": 0.514473629488406, "lon": -156.69558648923922, "alt_km": 443.8664363430116, "timestamp": "2025-12-17T21:39:44.490174+00:00", "meta": {"OBJECT_NAME": "STARLINK-35514", "OBJECT_ID": "2025-265V", "EPOCH": "2025-12-17T14:00:03.000384", "MEAN_MOTION": 15.40610828, "ECCENTRICITY": 0.00017454, "INCLINATION": 43.0003, "RA_OF_ASC_NODE": 25.6964, "ARG_OF_PERICENTER": 270.1224, "MEAN_ANOMALY": 296.3992, "EPHEMERIS_TYPE": 0, "CLASSIFICATION_TYPE": "U", "NORAD_CAT_ID": 66535, "ELEMENT_SET_NO": 999, "REV_AT_EPOCH": 577, "BSTAR": 0.00260977, "MEAN_MOTION_DOT": 0.00109972, "MEAN_MOTION_DDOT": 0}, "tle": {"line1": "1 66535U 25265V   25351.58336806  .00109972  00000+0  26098-2 0  9994", "line2": "2 66535  43.0003  25.6964 0001745 270.1224 296.3992 15.40610828  5778"}}, "geometry": {"type": "Point", "coordinates": [-156.69558648923922, 0.514473629488406]}}, {"type": "Feature", "properties": {"norad_id": 66536, "name": "STARLINK-35640", "group": "last-30-days", "lat": -31.364327467391544, "lon": -115.41887960320567, "alt_km": 416.339857121925, "timestamp": "2025-12-17T21:39:44.490184+00:00", "meta": {"OBJECT_NAME": "STARLINK-35640", "OBJECT_ID": "2025-265W", "EPOCH": "2025-12-16T12:12:48.773376", "MEAN_MOTION": 15.50602173, "ECCENTRICITY": 0.00017718, "INCLINATION": 43.0004, "RA_OF_ASC_NODE": 31.8836, "ARG_OF_PERICENTER": 262.7593, "MEAN_ANOMALY": 97.3066, "EPHEMERIS_TYPE": 0, "CLASSIFICATION_TYPE": "U", "NORAD_CAT_ID": 66536, "ELEMENT_SET_NO": 999, "REV_AT_EPOCH": 434, "BSTAR": 0.0011261208, "MEAN_MOTION_DOT": 0.0006634, "MEAN_MOTION_DDOT": 0}, "tle": {"line1": "1 66536U 25265W   25350.50889784  .00066340  00000+0  11261-2 0  9991", "line2": "2 66536  43.0004  31.8836 0001771 262.7593  97.3066 15.50602173  4340"}}, "geometry": {"type": "Point", "coordinates": [-115.41887960320567, -31.364327467391544]}}, {"type": "Feature", "properties": {"norad_id": 66537, "name": "STARLINK-35582", "group": "last-30-days", "lat": -32.07635088262793, "lon": -114.01065482160166, "alt_km": 416.8216837966811, "timestamp": "2025-12-17T21:39:44.490194+00:00", "meta": {"OBJECT_NAME": "STARLINK-35582", "OBJECT_ID": "2025-265X", "EPOCH": "2025-12-17T09:50:55.773600", "MEAN_MOTION": 15.50588967, "ECCENTRICITY": 0.0001772, "INCLINATION": 43.0012, "RA_OF_ASC_NODE": 26.6066, "ARG_OF_PERICENTER": 277.8063, "MEAN_ANOMALY": 82.2596, "EPHEMERIS_TYPE": 0, "CLASSIFICATION_TYPE": "U", "NORAD_CAT_ID": 66537, "ELEMENT_SET_NO": 999, "REV_AT_EPOCH": 448, "BSTAR": 0.0014380224, "MEAN_MOTION_DOT": 0.00084972, "MEAN_MOTION_DDOT": 0}, "tle": {"line1": "1 66537U 25265X   25351.41036775  .00084972  00000+0  14380-2 0  9993", "line2": "2 66537  43.0012  26.6066 0001772 277.8063  82.2596 15.50588967  4487"}}, "geometry": {"type": "Point", "coordinates": [-114.01065482160166, -32.07635088262793]}}, {"type": "Feature", "properties": {"norad_id": 66538, "name": "STARLINK-35577", "group": "last-30-days", "lat": -33.03629342248614, "lon": -112.02277833108573, "alt_km": 416.8520876119228, "timestamp": "2025-12-17T21:39:44.490205+00:00", "meta": {"OBJECT_NAME": "STARLINK-35577", "OBJECT_ID": "2025-265Y", "EPOCH": "2025-12-17T09:50:26.132352", "MEAN_MOTION": 15.50591082, "ECCENTRICITY": 0.00013928, "INCLINATION": 43.001, "RA_OF_ASC_NODE": 26.6049, "ARG_OF_PERICENTER": 263.8064, "MEAN_ANOMALY": 96.2638, "EPHEMERIS_TYPE": 0, "CLASSIFICATION_TYPE": "U", "NORAD_CAT_ID": 66538, "ELEMENT_SET_NO": 999, "REV_AT_EPOCH": 448, "BSTAR": 0.0015140009, "MEAN_MOTION_DOT": 0.00089538, "MEAN_MOTION_DDOT": 0}, "tle": {"line1": "1 66538U 25265Y   25351.41002468  .00089538  00000+0  15140-2 0  9994", "line2": "2 66538  43.0010  26.6049 0001392 263.8064  96.2638 15.50591082  4485"}}, "geometry": {"type": "Point", "coordinates": [-112.02277833108573, -33.03629342248614]}}, {"type": "Feature", "properties": {"norad_id": 66539, "name": "STARLINK-35697", "group": "last-30-days", "lat": -33.94213089933177, "lon": -110.04074766243342, "alt_km": 416.7878161490007, "timestamp": "2025-12-17T21:39:44.490229+00:00", "meta": {"OBJECT_NAME": "STARLINK-35697", "OBJECT_ID": "2025-265Z", "EPOCH": "2025-12-17T11:22:41.200608", "MEAN_MOTION": 15.50576211, "ECCENTRICITY": 0.00020261, "INCLINATION": 42.9996, "RA_OF_ASC_NODE": 26.2239, "ARG_OF_PERICENTER": 273.6724, "MEAN_ANOMALY": 86.3905, "EPHEMERIS_TYPE": 0, "CLASSIFICATION_TYPE": "U", "NORAD_CAT_ID": 66539, "ELEMENT_SET_NO": 999, "REV_AT_EPOCH": 449, "BSTAR": 0.0011358141, "MEAN_MOTION_DOT": 0.00066857, "MEAN_MOTION_DDOT": 0}, "tle": {"line1": "1 66539U 25265Z   25351.47408797  .00066857  00000+0  11358-2 0  9992", "line2": "2 66539  42.9996  26.2239 0002026 273.6724  86.3905 15.50576211  4496"}}, "geometry": {"type": "Point", "coordinates": [-110.04074766243342, -33.94213089933177]}}, {"type": "Feature", "properties": {"norad_id": 66540, "name": "STARLINK-35818", "group": "last-30-days", "lat": -34.79467286099487, "lon": -108.0696043831491, "alt_km": 416.8218210607365, "timestamp": "2025-12-17T21:39:44.490240+00:00", "meta": {"OBJECT_NAME": "STARLINK-35818", "OBJECT_ID": "2025-265AA", "EPOCH": "2025-12-17T09:49:26.873184", "MEAN_MOTION": 15.50570113, "ECCENTRICITY": 0.0002163, "INCLINATION": 43.0002, "RA_OF_ASC_NODE": 26.5974, "ARG_OF_PERICENTER": 273.8138, "MEAN_ANOMALY": 86.2475, "EPHEMERIS_TYPE": 0, "CLASSIFICATION_TYPE": "U", "NORAD_CAT_ID": 66540, "ELEMENT_SET_NO": 999, "REV_AT_EPOCH": 448, "BSTAR": 0.00063150289, "MEAN_MOTION_DOT": 0.0003687, "MEAN_MOTION_DDOT": 0}, "tle": {"line1": "1 66540U 25265AA  25351.40933881  .00036870  00000+0  63150-3 0  9994", "line2": "2 66540  43.0002  26.5974 0002163 273.8138  86.2475 15.50570113  4485"}}, "geometry": {"type": "Point", "coordinates": [-108.0696043831491, -34.79467286099487]}}, {"type": "Feature", "properties": {"norad_id": 66541, "name": "STARLINK-35796", "group": "last-30-days", "lat": 42.9446588123667, "lon": 116.95265707028474, "alt_km": 437.9727014449818, "timestamp": "2025-12-17T21:39:44.490249+00:00", "meta": {"OBJECT_NAME": "STARLINK-35796", "OBJECT_ID": "2025-265AB", "EPOCH": "2025-12-17T14:00:03.000384", "MEAN_MOTION": 15.40652539, "ECCENTRICITY": 0.00011529, "INCLINATION": 43.0012, "RA_OF_ASC_NODE": 25.9064, "ARG_OF_PERICENTER": 276.6919, "MEAN_ANOMALY": 202.7177, "EPHEMERIS_TYPE": 0, "CLASSIFICATION_TYPE": "U", "NORAD_CAT_ID": 66541, "ELEMENT_SET_NO": 999, "REV_AT_EPOCH": 577, "BSTAR": 0.0021029511, "MEAN_MOTION_DOT": 0.00088426, "MEAN_MOTION_DDOT": 0}, "tle": {"line1": "1 66541U 25265AB  25351.58336806  .00088426  00000+0  21030-2 0  9992", "line2": "2 66541  43.0012  25.9064 0001152 276.6919 202.7177 15.40652539  5774"}}, "geometry": {"type": "Point", "coordinates": [116.95265707028474, 42.9446588123667]}}, {"type": "Feature", "properties": {"norad_id": 66542, "name": "STARLINK-35833", "group": "last-30-days", "lat": 24.862798477281274, "lon": 174.1265469159217, "alt_km": 440.69669427480585, "timestamp": "2025-12-17T21:39:44.490259+00:00", "meta": {"OBJECT_NAME": "STARLINK-35833", "OBJECT_ID": "2025-265AC", "EPOCH": "2025-12-17T14:00:03.000384", "MEAN_MOTION": 15.40649895, "ECCENTRICITY": 0.00011092, "INCLINATION": 43.0009, "RA_OF_ASC_NODE": 25.7859, "ARG_OF_PERICENTER": 283.8815, "MEAN_ANOMALY": 245.2908, "EPHEMERIS_TYPE": 0, "CLASSIFICATION_TYPE": "U", "NORAD_CAT_ID": 66542, "ELEMENT_SET_NO": 999, "REV_AT_EPOCH": 577, "BSTAR": 0.002024187, "MEAN_MOTION_DOT": 0.00085057, "MEAN_MOTION_DDOT": 0}, "tle": {"line1": "1 66542U 25265AC  25351.58336806  .00085057  00000+0  20242-2 0  9994", "line2": "2 66542  43.0009  25.7859 0001109 283.8815 245.2908 15.40649895  5773"}}, "geometry": {"type": "Point", "coordinates": [174.1265469159217, 24.862798477281274]}}, {"type": "Feature", "properties": {"norad_id": 66543, "name": "STARLINK-35315", "group": "last-30-days", "lat": -16.246950837962512, "lon": -137.98197399916452, "alt_km": 445.68590221725935, "timestamp": "2025-12-17T21:39:44.490269+00:00", "meta": {"OBJECT_NAME": "STARLINK-35315", "OBJECT_ID": "2025-265AD", "EPOCH": "2025-12-17T14:00:03.000384", "MEAN_MOTION": 15.42290738, "ECCENTRICITY": 0.00014317, "INCLINATION": 43.0007, "RA_OF_ASC_NODE": 25.6371, "ARG_OF_PERICENTER": 294.8151, "MEAN_ANOMALY": 295.6885, "EPHEMERIS_TYPE": 0, "CLASSIFICATION_TYPE": "U", "NORAD_CAT_ID": 66543, "ELEMENT_SET_NO": 999, "REV_AT_EPOCH": 566, "BSTAR": -0.055916155, "MEAN_MOTION_DOT": -0.02210738, "MEAN_MOTION_DDOT": 0}, "tle": {"line1": "1 66543U 25265AD  25351.58336806 -.02210738  00000+0 -55916-1 0  9990", "line2": "2 66543  43.0007  25.6371 0001431 294.8151 295.6885 15.42290738  5664"}}, "geometry": {"type": "Point", "coordinates": [-137.98197399916452, -16.246950837962512]}}, {"type": "Feature", "properties": {"norad_id": 66544, "name": "STARLINK-35728", "group": "last-30-days", "lat": -37.995978188424786, "lon": -99.35092700574842, "alt_km": 416.816928573885, "timestamp": "2025-12-17T21:39:44.490280+00:00", "meta": {"OBJECT_NAME": "STARLINK-35728", "OBJECT_ID": "2025-265AE", "EPOCH": "2025-12-17T09:47:28.208832", "MEAN_MOTION": 15.50575343, "ECCENTRICITY": 0.00020715, "INCLINATION": 43.0016, "RA_OF_ASC_NODE": 26.5865, "ARG_OF_PERICENTER": 278.1275, "MEAN_ANOMALY": 81.935, "EPHEMERIS_TYPE": 0, "CLASSIFICATION_TYPE": "U", "NORAD_CAT_ID": 66544, "ELEMENT_SET_NO": 999, "REV_AT_EPOCH": 448, "BSTAR": 0.0015138653, "MEAN_MOTION_DOT": 0.00089481, "MEAN_MOTION_DDOT": 0}, "tle": {"line1": "1 66544U 25265AE  25351.40796538  .00089481  00000+0  15139-2 0  9993", "line2": "2 66544  43.0016  26.5865 0002071 278.1275  81.9350 15.50575343  4485"}}, "geometry": {"type": "Point", "coordinates": [-99.35092700574842, -37.995978188424786]}}]}